MALLIGYONG-1            
1 58400U 23179A   24129.93624648  .00007257  00000+0  31720-3 0  9995
2 58400  97.4089  17.3814 0010563  49.6659 310.5499 15.22340501 25757
